[
    {
        "Altitude(m)": 604221.2061950442,
        "Argument of Periapsis(deg)": 0.0,
        "Eccentricity": 0.0,
        "Inclination(deg)": 60.0,
        "Latitude(deg)": 14.117256505868799,
        "Longitude(deg)": -6.665876857230676,
        "Mean Anomaly(deg)": 16.363599999999998,
        "RAAN(deg)": 85.00000000000001,
        "Satellite Name": "Test1 375",
        "Satellite Number": 375,
        "Semi-Major Axis(m)": 6980739.136638005,
        "Time(s)": 0
    },
    {
        "Altitude(m)": 604235.3472850613,
        "Argument of Periapsis(deg)": 0.00010418945913296404,
        "Eccentricity": 0.0,
        "Inclination(deg)": 60.0,
        "Latitude(deg)": 14.651653889737155,
        "Longitude(deg)": -6.377431110484695,
        "Mean Anomaly(deg)": 16.983706145461827,
        "RAAN(deg)": 84.99957995086027,
        "Satellite Name": "Test1 375",
        "Satellite Number": 375,
        "Semi-Major Axis(m)": 6980739.136638005,
        "Time(s)": 10
    }
]